[{"OBJECT_NAME":"LEMUR-2-ARIANNA","OBJECT_ID":"2025-009CU","EPOCH":"2026-03-03T04:57:59.539104","MEAN_MOTION":15.00734447,"ECCENTRICITY":0.0004359,"INCLINATION":97.7028,"RA_OF_ASC_NODE":144.5698,"ARG_OF_PERICENTER":159.5151,"MEAN_ANOMALY":200.6249,"EPHEMERIS_TYPE":0,"CLASSIFICATION_TYPE":"U","NORAD_CAT_ID":62699,"ELEMENT_SET_NO":999,"REV_AT_EPOCH":6165,"BSTAR":0.00073,"MEAN_MOTION_DOT":9.202e-5,"MEAN_MOTION_DDOT":0},{"OBJECT_NAME":"LEMUR-2-ALISIA","OBJECT_ID":"2025-009DB","EPOCH":"2026-03-02T17:43:11.109792","MEAN_MOTION":15.00991747,"ECCENTRICITY":0.0006256,"INCLINATION":97.7075,"RA_OF_ASC_NODE":144.7546,"ARG_OF_PERICENTER":174.9664,"MEAN_ANOMALY":185.1624,"EPHEMERIS_TYPE":0,"CLASSIFICATION_TYPE":"U","NORAD_CAT_ID":62706,"ELEMENT_SET_NO":999,"REV_AT_EPOCH":8418,"BSTAR":0.00076519864,"MEAN_MOTION_DOT":9.717e-5,"MEAN_MOTION_DDOT":0},{"OBJECT_NAME":"LEMUR-2-ROUNDTRIPPER","OBJECT_ID":"2025-009DG","EPOCH":"2026-03-03T03:59:09.196224","MEAN_MOTION":15.01915283,"ECCENTRICITY":0.0004585,"INCLINATION":97.731,"RA_OF_ASC_NODE":145.1325,"ARG_OF_PERICENTER":143.8946,"MEAN_ANOMALY":216.2589,"EPHEMERIS_TYPE":0,"CLASSIFICATION_TYPE":"U","NORAD_CAT_ID":62711,"ELEMENT_SET_NO":999,"REV_AT_EPOCH":6170,"BSTAR":0.00081508,"MEAN_MOTION_DOT":0.00010608,"MEAN_MOTION_DDOT":0},{"OBJECT_NAME":"LEMUR-2-MYNAMEISJEFF","OBJECT_ID":"2025-009DH","EPOCH":"2026-03-03T03:57:01.224864","MEAN_MOTION":15.01903344,"ECCENTRICITY":0.0003697,"INCLINATION":97.7359,"RA_OF_ASC_NODE":145.4492,"ARG_OF_PERICENTER":172.1359,"MEAN_ANOMALY":187.9923,"EPHEMERIS_TYPE":0,"CLASSIFICATION_TYPE":"U","NORAD_CAT_ID":62712,"ELEMENT_SET_NO":999,"REV_AT_EPOCH":6170,"BSTAR":0.00080455,"MEAN_MOTION_DOT":0.00010466,"MEAN_MOTION_DDOT":0},{"OBJECT_NAME":"LEMUR-2-LEIA-PHILIP","OBJECT_ID":"2025-052AN","EPOCH":"2026-03-02T22:17:55.272480","MEAN_MOTION":14.96530618,"ECCENTRICITY":0.0002559,"INCLINATION":97.6978,"RA_OF_ASC_NODE":315.6358,"ARG_OF_PERICENTER":196.8612,"MEAN_ANOMALY":163.2525,"EPHEMERIS_TYPE":0,"CLASSIFICATION_TYPE":"U","NORAD_CAT_ID":63246,"ELEMENT_SET_NO":999,"REV_AT_EPOCH":5277,"BSTAR":0.00065707,"MEAN_MOTION_DOT":7.418e-5,"MEAN_MOTION_DDOT":0},{"OBJECT_NAME":"LEMUR-2-LIA-MARTIN","OBJECT_ID":"2025-052AQ","EPOCH":"2026-03-03T03:38:38.818752","MEAN_MOTION":14.96702705,"ECCENTRICITY":0.0002952,"INCLINATION":97.702,"RA_OF_ASC_NODE":316.2115,"ARG_OF_PERICENTER":160.8023,"MEAN_ANOMALY":199.331,"EPHEMERIS_TYPE":0,"CLASSIFICATION_TYPE":"U","NORAD_CAT_ID":63248,"ELEMENT_SET_NO":999,"REV_AT_EPOCH":5281,"BSTAR":0.00054713,"MEAN_MOTION_DOT":6.193e-5,"MEAN_MOTION_DDOT":0},{"OBJECT_NAME":"LEMUR-2-DELOITTE-1","OBJECT_ID":"2025-052BB","EPOCH":"2026-03-03T02:53:38.950080","MEAN_MOTION":14.96706335,"ECCENTRICITY":0.0003227,"INCLINATION":97.7055,"RA_OF_ASC_NODE":316.4919,"ARG_OF_PERICENTER":92.2734,"MEAN_ANOMALY":267.8858,"EPHEMERIS_TYPE":0,"CLASSIFICATION_TYPE":"U","NORAD_CAT_ID":63259,"ELEMENT_SET_NO":999,"REV_AT_EPOCH":5282,"BSTAR":0.00056852,"MEAN_MOTION_DOT":6.439e-5,"MEAN_MOTION_DDOT":0},{"OBJECT_NAME":"LEMUR-2-EMERSONROSE","OBJECT_ID":"2025-052BD","EPOCH":"2026-03-02T22:23:03.976224","MEAN_MOTION":14.98125988,"ECCENTRICITY":0.0003417,"INCLINATION":97.7048,"RA_OF_ASC_NODE":316.6527,"ARG_OF_PERICENTER":66.2901,"MEAN_ANOMALY":293.868,"EPHEMERIS_TYPE":0,"CLASSIFICATION_TYPE":"U","NORAD_CAT_ID":63261,"ELEMENT_SET_NO":999,"REV_AT_EPOCH":5282,"BSTAR":0.000595,"MEAN_MOTION_DOT":6.994e-5,"MEAN_MOTION_DDOT":0},{"OBJECT_NAME":"LEMUR-2-MARACHE-FRAN","OBJECT_ID":"2025-052BE","EPOCH":"2026-03-03T03:59:35.651904","MEAN_MOTION":14.98775181,"ECCENTRICITY":0.0002388,"INCLINATION":97.7007,"RA_OF_ASC_NODE":317.0723,"ARG_OF_PERICENTER":42.2188,"MEAN_ANOMALY":317.9218,"EPHEMERIS_TYPE":0,"CLASSIFICATION_TYPE":"U","NORAD_CAT_ID":63262,"ELEMENT_SET_NO":999,"REV_AT_EPOCH":5287,"BSTAR":0.0006461,"MEAN_MOTION_DOT":7.729e-5,"MEAN_MOTION_DDOT":0},{"OBJECT_NAME":"LEMUR-2-THEFALCONER","OBJECT_ID":"2025-052BG","EPOCH":"2026-03-02T15:54:53.774496","MEAN_MOTION":14.96412267,"ECCENTRICITY":0.0002943,"INCLINATION":97.7005,"RA_OF_ASC_NODE":315.7768,"ARG_OF_PERICENTER":38.9181,"MEAN_ANOMALY":321.2252,"EPHEMERIS_TYPE":0,"CLASSIFICATION_TYPE":"U","NORAD_CAT_ID":63264,"ELEMENT_SET_NO":999,"REV_AT_EPOCH":5275,"BSTAR":0.00048954,"MEAN_MOTION_DOT":5.494e-5,"MEAN_MOTION_DDOT":0},{"OBJECT_NAME":"LEMUR-2-UNTITLED-SC","OBJECT_ID":"2025-061A","EPOCH":"2026-03-03T00:17:53.132928","MEAN_MOTION":15.12607063,"ECCENTRICITY":0.0017276,"INCLINATION":97.5542,"RA_OF_ASC_NODE":38.2746,"ARG_OF_PERICENTER":271.8712,"MEAN_ANOMALY":88.054,"EPHEMERIS_TYPE":0,"CLASSIFICATION_TYPE":"U","NORAD_CAT_ID":63351,"ELEMENT_SET_NO":999,"REV_AT_EPOCH":5153,"BSTAR":0.00037973,"MEAN_MOTION_DOT":6.589e-5,"MEAN_MOTION_DDOT":0},{"OBJECT_NAME":"LEMUR-2-ESPERANZA","OBJECT_ID":"2025-061B","EPOCH":"2026-03-02T22:18:19.786752","MEAN_MOTION":15.12684435,"ECCENTRICITY":0.0016739,"INCLINATION":97.555,"RA_OF_ASC_NODE":38.2622,"ARG_OF_PERICENTER":271.5504,"MEAN_ANOMALY":88.381,"EPHEMERIS_TYPE":0,"CLASSIFICATION_TYPE":"U","NORAD_CAT_ID":63352,"ELEMENT_SET_NO":999,"REV_AT_EPOCH":5152,"BSTAR":0.00033014,"MEAN_MOTION_DOT":5.73e-5,"MEAN_MOTION_DDOT":0},{"OBJECT_NAME":"LEMUR-2-KREMPEL-BRO2","OBJECT_ID":"2025-061C","EPOCH":"2026-03-02T22:05:02.573952","MEAN_MOTION":15.130874,"ECCENTRICITY":0.0017625,"INCLINATION":97.5597,"RA_OF_ASC_NODE":38.6514,"ARG_OF_PERICENTER":263.4858,"MEAN_ANOMALY":96.4366,"EPHEMERIS_TYPE":0,"CLASSIFICATION_TYPE":"U","NORAD_CAT_ID":63353,"ELEMENT_SET_NO":999,"REV_AT_EPOCH":5153,"BSTAR":0.00031796,"MEAN_MOTION_DOT":5.581e-5,"MEAN_MOTION_DDOT":0},{"OBJECT_NAME":"LEMUR-2-THERMORAPTOR","OBJECT_ID":"2025-061D","EPOCH":"2026-03-02T23:21:30.279168","MEAN_MOTION":15.13164473,"ECCENTRICITY":0.0017405,"INCLINATION":97.5601,"RA_OF_ASC_NODE":38.7608,"ARG_OF_PERICENTER":262.0921,"MEAN_ANOMALY":97.8335,"EPHEMERIS_TYPE":0,"CLASSIFICATION_TYPE":"U","NORAD_CAT_ID":63354,"ELEMENT_SET_NO":999,"REV_AT_EPOCH":5154,"BSTAR":0.00031746,"MEAN_MOTION_DOT":5.584e-5,"MEAN_MOTION_DDOT":0},{"OBJECT_NAME":"LEMUR-2-NEUROSPICY","OBJECT_ID":"2025-061E","EPOCH":"2026-03-02T21:16:59.323872","MEAN_MOTION":15.13273399,"ECCENTRICITY":0.0015319,"INCLINATION":97.5524,"RA_OF_ASC_NODE":38.3843,"ARG_OF_PERICENTER":266.7206,"MEAN_ANOMALY":93.2273,"EPHEMERIS_TYPE":0,"CLASSIFICATION_TYPE":"U","NORAD_CAT_ID":63355,"ELEMENT_SET_NO":999,"REV_AT_EPOCH":5153,"BSTAR":0.00044523,"MEAN_MOTION_DOT":7.878e-5,"MEAN_MOTION_DDOT":0},{"OBJECT_NAME":"LEMUR-2-TILLINFINITY","OBJECT_ID":"2025-061F","EPOCH":"2026-03-02T21:31:32.108160","MEAN_MOTION":15.13850056,"ECCENTRICITY":0.0016548,"INCLINATION":97.5512,"RA_OF_ASC_NODE":38.6107,"ARG_OF_PERICENTER":253.594,"MEAN_ANOMALY":106.3472,"EPHEMERIS_TYPE":0,"CLASSIFICATION_TYPE":"U","NORAD_CAT_ID":63356,"ELEMENT_SET_NO":999,"REV_AT_EPOCH":5155,"BSTAR":0.00033627,"MEAN_MOTION_DOT":6.033e-5,"MEAN_MOTION_DDOT":0}]
