LEMUR-2-ARIANNA         
1 62699U 25009CU  26062.20693911  .00009202  00000+0  73000-3 0  9990
2 62699  97.7028 144.5698 0004359 159.5151 200.6249 15.00734447 61658
LEMUR-2-ALISIA          
1 62706U 25009DB  26061.73832303  .00009717  00000+0  76520-3 0  9997
2 62706  97.7075 144.7546 0006256 174.9664 185.1624 15.00991747 84186
LEMUR-2-ROUNDTRIPPER    
1 62711U 25009DG  26062.16607866  .00010608  00000+0  81508-3 0  9998
2 62711  97.7310 145.1325 0004585 143.8946 216.2589 15.01915283 61706
LEMUR-2-MYNAMEISJEFF    
1 62712U 25009DH  26062.16459751  .00010466  00000+0  80455-3 0  9999
2 62712  97.7359 145.4492 0003697 172.1359 187.9923 15.01903344 61705
LEMUR-2-LEIA-PHILIP     
1 63246U 25052AN  26061.92911195  .00007418  00000+0  65707-3 0  9994
2 63246  97.6978 315.6358 0002559 196.8612 163.2525 14.96530618 52772
LEMUR-2-LIA-MARTIN      
1 63248U 25052AQ  26062.15183818  .00006193  00000+0  54713-3 0  9999
2 63248  97.7020 316.2115 0002952 160.8023 199.3310 14.96702705 52810
LEMUR-2-DELOITTE-1      
1 63259U 25052BB  26062.12058970  .00006439  00000+0  56852-3 0  9997
2 63259  97.7055 316.4919 0003227  92.2734 267.8858 14.96706335 52829
LEMUR-2-EMERSONROSE     
1 63261U 25052BD  26061.93268491  .00006994  00000+0  59500-3 0  9998
2 63261  97.7048 316.6527 0003417  66.2901 293.8680 14.98125988 52822
LEMUR-2-MARACHE-FRAN    
1 63262U 25052BE  26062.16638486  .00007729  00000+0  64610-3 0  9995
2 63262  97.7007 317.0723 0002388  42.2188 317.9218 14.98775181 52874
LEMUR-2-THEFALCONER     
1 63264U 25052BG  26061.66312239  .00005494  00000+0  48954-3 0  9996
2 63264  97.7005 315.7768 0002943  38.9181 321.2252 14.96412267 52754
LEMUR-2-UNTITLED-SC     
1 63351U 25061A   26062.01242052  .00006589  00000+0  37973-3 0  9993
2 63351  97.5542  38.2746 0017276 271.8712  88.0540 15.12607063 51533
LEMUR-2-ESPERANZA       
1 63352U 25061B   26061.92939568  .00005730  00000+0  33014-3 0  9997
2 63352  97.5550  38.2622 0016739 271.5504  88.3810 15.12684435 51525
LEMUR-2-KREMPEL-BRO2    
1 63353U 25061C   26061.92016868  .00005581  00000+0  31796-3 0  9996
2 63353  97.5597  38.6514 0017625 263.4858  96.4366 15.13087400 51535
LEMUR-2-THERMORAPTOR    
1 63354U 25061D   26061.97326712  .00005584  00000+0  31746-3 0  9992
2 63354  97.5601  38.7608 0017405 262.0921  97.8335 15.13164473 51547
LEMUR-2-NEUROSPICY      
1 63355U 25061E   26061.88679773  .00007878  00000+0  44523-3 0  9996
2 63355  97.5524  38.3843 0015319 266.7206  93.2273 15.13273399 51536
LEMUR-2-TILLINFINITY    
1 63356U 25061F   26061.89689940  .00006033  00000+0  33627-3 0  9990
2 63356  97.5512  38.6107 0016548 253.5940 106.3472 15.13850056 51554
